#aV2008  3 26  0  0   .00000000      96 DD+AD WGS84 FIT  NGA
## 1472 259200.00000000   900.00000000 54551  .0000000000000
+   31     2  3  4  5  6  7  8  9 10 11 12 13 14 15 16 17 18
+         19 20 21 22 23 24 25 26 27 28 29 30 31 32  0  0  0
+          0  0  0  0  0  0  0  0  0  0  0  0  0  0  0  0  0
+          0  0  0  0  0  0  0  0  0  0  0  0  0  0  0  0  0
+          0  0  0  0  0  0  0  0  0  0  0  0  0  0  0  0  0
++         0  0  0  0  0  0  0  0  0  0  0  0  0  0  0  0  0
++         0  0  0  0  0  0  0  0  0  0  0  0  0  0  0  0  0
++         0  0  0  0  0  0  0  0  0  0  0  0  0  0  0  0  0
++         0  0  0  0  0  0  0  0  0  0  0  0  0  0  0  0  0
++         0  0  0  0  0  0  0  0  0  0  0  0  0  0  0  0  0
%c cc cc ccc ccc cccc cccc cccc cccc ccccc ccccc ccccc ccccc
%c cc cc ccc ccc cccc cccc cccc cccc ccccc ccccc ccccc ccccc
%f  0.0000000  0.000000000  0.00000000000  0.000000000000000
%f  0.0000000  0.000000000  0.00000000000  0.000000000000000
%i    0    0    0    0      0      0      0      0         0
%i    0    0    0    0      0      0      0      0         0
/*      NGA, ST. LOUIS,MO.                                  
/*   EPHEMERIS COMPUTED FROM  3 DAYS OF DATA                
/* CCCCCCCCCCCCCCCCCCCCCCCCCCCCCCCCCCCCCCCCCCCCCCCCCCCCCCCCC
/* CCCCCCCCCCCCCCCCCCCCCCCCCCCCCCCCCCCCCCCCCCCCCCCCCCCCCCCCC
*  2008  3 26  0 30   .00000000                                                 
P  2   9763.042108  21686.323341  11994.910330    185.156973                    
V  2 -12827.631274  -8924.668373  25857.884611       .031830                    
P  3  -6601.080300 -14680.190490 -21385.172359    205.314852                    
V  3  24927.180582  -9586.303432   -775.866379       .052425                    
P  4  -2090.589166  17859.420465  19335.219082    -33.261471                    
V  4 -18680.352442 -16594.659355  13602.765593      -.074001                    
P  5  15549.192551    782.206702  21247.109765    732.424390                    
V  5  -4330.360973  27345.322949   2277.477177       .107941                    
P  6  16766.242726 -15610.014245 -13325.531389     77.635554                    
V  6  17308.268714  -2433.645180  24271.122157       .140133                    
P  7 -19364.901333  -1357.934866 -18177.443058    -93.157686                    
V  7 -15255.621162 -17294.837474  17504.661516       .148512                    
P  8 -10317.743313  10599.960919 -22130.285086   -146.331813                    
V  8 -18919.570335 -20436.761499  -1424.646167      -.015469                    
P  9  21498.883365  14311.215191   5937.593828    116.884619                    
V  9   4478.833283   7391.174315 -30659.096213       .017137                    
P 10   3114.359929  22597.194453 -13452.844460      -.160668                    
V 10  -7003.490522  15649.675790  25239.347281      -.000542                    
P 11 -23992.087770  -8974.310092   7464.173430     26.707367                    
V 11  -5577.061651  -9074.666603 -27935.636115      -.001369                    
P 12  13846.726514   6744.771230  21738.806798   -358.474864                    
V 12  -7297.337921  26374.457733  -3466.235923      -.003653                    
P 13 -25722.438193   6476.426606  -1109.543654    247.291221                    
V 13  -1611.620046  -1404.528052  32489.332765       .019536                    
P 14  16381.415487 -14287.412078  15298.598047   -284.136043                    
V 14  19023.699375  -3134.386285 -23536.410401       .039289                    
P 15  16231.726883   9206.631237 -18877.766616    -89.427407                    
V 15 -22729.341539   7927.013386 -15652.720477      -.043518                    
P 16    461.907423 -24802.934437  -9140.586651    130.514247                    
V 16   5727.678763 -10607.331583  29018.244112      -.010764                    
P 17 -16361.961154  14840.888457  14664.619655     40.647767                    
V 17 -18586.332876   2543.593506 -23515.537973      -.003688                    
P 18  16297.641838 -12013.103684 -16833.201460   -193.176280                    
V 18  -4236.609075  21584.097592 -19655.400185       .034102                    
P 19 -16497.369274  -9859.161084 -18320.723195     25.357631                    
V 19  22646.558149  -6016.443398 -16904.208864       .011794                    
P 20 -14886.467726  -4107.730911  21491.421088    117.857428                    
V 20   6668.332302 -26799.699448   -453.121915      -.008027                    
P 21  17050.082954  -3481.912407 -20044.938600     68.666824                    
V 21  17089.622074  19302.546577  10489.150735      -.009302                    
P 22  11596.420056 -23120.780113  -5780.482719    209.949550                    
V 22    825.861855   8176.585664 -30294.469137       .004749                    
P 23 -23831.421157  -1927.286461  11748.182099    343.406605                    
V 23  13911.694373  -5731.950370  26892.431867       .025493                    
P 24  20926.236990   9210.509775 -13103.234963     81.102068                    
V 24   9475.163384  14416.462240  25222.990752       .031259                    
P 25 -21617.989232  -5120.166818 -14050.196609    -24.270439                    
V 25 -12865.730138 -13540.538854  24284.019807      -.340975                    
P 26  12961.670351  11093.390446 -20982.568318    216.388473                    
V 26 -24653.642864   5828.129670 -11892.835874       .090597                    
P 27 -17538.301884   2159.029050 -19207.134756    176.879195                    
V 27 -18533.625138 -17967.451734  14260.027478       .025696                    
P 28 -12180.673613  21877.424469  -7945.283408    -16.963400                    
V 28    218.560716 -11085.107899 -29794.491241      -.005617                    
P 29  26027.498982  -4413.117821   2910.331700    -47.021142                    
V 29  -2761.965173   3610.291611  31472.193754       .023955                    
P 30  16020.899507  -6681.272989  19742.549586     69.249257                    
V 30  -4318.726603  25549.084403  12050.193503       .016982                    
P 31   -304.099170 -18719.026033  19009.241822    -14.069118                    
V 31  17816.227630  15712.031929  16034.700824      -.013451                    
P 32   1735.378588 -24881.523493   9832.077378    257.130098                    
V 32   5880.453501 -10418.501737 -28504.131173       .074828                    
EOF
